BEIDOU G1               
1 36287U 10001A   19068.87257149 -.00000287  00000-0  00000+0 0  9992
2 36287   1.5116  20.2033 0002474 166.6185  74.5863  1.00272811 33531
BEIDOU G3               
1 36590U 10024A   19068.18660399 -.00000144  00000-0  00000+0 0  9995
2 36590   1.5447  35.1241 0000981  27.0809 251.5755  1.00272350 32135
BEIDOU IGSO 1           
1 36828U 10036A   19067.93135750 -.00000152  00000-0  10000-3 0  9996
2 36828  54.1507 187.3973 0076873 232.5122 198.7763  1.00295340 31578
BEIDOU G4               
1 37210U 10057A   19068.84129072 -.00000116  00000-0  00000+0 0  9991
2 37210   0.9673  54.1238 0003881 189.0446  26.8699  1.00274183 30644
BEIDOU IGSO 2           
1 37256U 10068A   19065.88932588 -.00000177  00000-0  10000-3 0  9990
2 37256  52.2375 303.8866 0062669 201.5852  94.4261  1.00247303 30138
BEIDOU IGSO 3           
1 37384U 11013A   19068.81709006 -.00000152  00000-0  10000-3 0  9999
2 37384  58.6445  66.3709 0041356 209.1875 305.3425  1.00284689 29046
BEIDOU IGSO 4           
1 37763U 11038A   19068.79883438 -.00000089  00000-0  10000-3 0  9995
2 37763  54.4430 189.7960 0058519 221.0738 139.7362  1.00268168 28013
BEIDOU IGSO 5           
1 37948U 11073A   19068.61307203 -.00000130  00000-0  10000-3 0  9998
2 37948  52.3091 303.3864 0055946 208.3418 331.9648  1.00276143 26764
BEIDOU G5               
1 38091U 12008A   19068.17497343  .00000052  00000-0  00000+0 0  9990
2 38091   1.9281  68.4220 0004998 291.8047 288.0057  1.00272337 25830
BEIDOU M3               
1 38250U 12018A   19068.72517360 -.00000054  00000-0  10000-3 0  9999
2 38250  56.5902  33.1041 0023183 241.3004   7.5188  1.86232904 46813
BEIDOU M4               
1 38251U 12018B   19068.05292604 -.00000058  00000-0  10000-3 0  9991
2 38251  56.5242  32.5229 0027842 236.2220 349.5940  1.86233552 46805
BEIDOU M6               
1 38775U 12050B   19068.37204374  .00000019  00000-0  00000+0 0  9991
2 38775  54.9308 152.0195 0022064 244.0508  33.4825  1.86232151 44182
BEIDOU G6               
1 38953U 12059A   19068.10823796 -.00000179  00000-0  00000+0 0  9992
2 38953   1.6545  83.0997 0006614 225.4321 340.8821  1.00269558 23404
BEIDOU I1-S             
1 40549U 15019A   19068.49417972 -.00000163  00000-0  00000+0 0  9995
2 40549  53.6967 326.5587 0037292 189.7172 285.2679  1.00274628 14446
BEIDOU-3 M1             
1 40748U 15037A   19068.54659711 -.00000057  00000-0  00000+0 0  9993
2 40748  55.7959  32.0894 0009683 282.4791 181.9391  1.86231221 24644
BEIDOU-3 M2             
1 40749U 15037B   19067.98619162 -.00000060  00000-0  00000+0 0  9991
2 40749  55.7979  32.0989 0008198 299.5358 264.7359  1.86234376 24626
BEIDOU I2-S             
1 40938U 15053A   19068.59007756 -.00000104  00000-0  00000+0 0  9996
2 40938  53.3074 289.5280 0047080 180.0257   5.2554  1.00287121 12729
BEIDOU M3-S             
1 41315U 16006A   19068.24511110  .00000019  00000-0  00000+0 0  9995
2 41315  55.1135 152.3578 0003169 243.9862 148.2461  1.86231955 21111
BEIDOU IGSO 6           
1 41434U 16021A   19068.81689546 -.00000118  00000-0  00000+0 0  9997
2 41434  56.3940  65.5140 0034350 202.0138 290.3565  1.00269877 10851
BEIDOU G7               
1 41586U 16037A   19068.09076971 -.00000360  00000-0  00000+0 0  9993
2 41586   0.7836  27.9843 0009133  10.2644 271.4397  1.00275890 10147
BEIDOU-3 M1             
1 43001U 17069A   19068.47363841  .00000019  00000-0  00000+0 0  9990
2 43001  55.0854 151.8577 0009472 281.5202 196.2859  1.86231730  9126
BEIDOU-3 M2             
1 43002U 17069B   19068.38439769  .00000019  00000-0  00000+0 0  9994
2 43002  55.0851 151.8977 0008920 302.4008 160.0181  1.86231487  9117
BEIDOU-3 M3             
1 43107U 18003A   19068.32209900 -.00000058  00000-0  00000+0 0  9999
2 43107  55.2165  33.5644 0004501   0.0628 226.3124  1.86232697  7878
BEIDOU-3 M4             
1 43108U 18003B   19068.25463400 -.00000059  00000-0  00000+0 0  9990
2 43108  55.2083  33.5605 0004545 254.1567 332.0531  1.86232739  7871
BEIDOU-3 M5             
1 43207U 18018A   19068.36519958  .00000019  00000-0  00000+0 0  9993
2 43207  55.0458 152.0169 0006586 321.7054  38.3048  1.86231623  7269
BEIDOU-3 M6             
1 43208U 18018B   19067.35807498  .00000016  00000-0  00000+0 0  9998
2 43208  55.0448 152.0550 0008274 292.3315  67.6340  1.86231792  7247
BEIDOU-3 M7             
1 43245U 18029A   19067.91564333 -.00000063  00000-0  00000+0 0  9994
2 43245  55.1802  31.4037 0002444 293.1932 290.4982  1.86232765  6406
BEIDOU-3 M8             
1 43246U 18029B   19067.61490922 -.00000064  00000-0  10000-3 0  9990
2 43246  55.1778  31.4468 0006084 317.4994 110.0686  1.86232976  6399
BEIDOU IGSO-7           
1 43539U 18057A   19067.93094821 -.00000142  00000-0  00000+0 0  9991
2 43539  55.0413 186.5476 0021980 181.7105 245.0468  1.00258662  2511
BEIDOU-3 M9             
1 43581U 18062A   19068.00547406  .00000025  00000-0  00000+0 0  9994
2 43581  54.8400 273.1685 0001576 280.4094 258.5190  1.86231624  4144
BEIDOU-3 M10            
1 43582U 18062B   19068.40728258  .00000027  00000-0  00000+0 0  9997
2 43582  54.8379 273.1426 0004961   7.0696 171.6742  1.86232055  4153
BEIDOU-3 M11            
1 43602U 18067A   19068.24537655  .00000028  00000-0  00000+0 0  9997
2 43602  54.9020 271.6672 0005898 353.5700 120.3315  1.86231513  3649
BEIDOU-3 M12            
1 43603U 18067B   19067.93821520  .00000026  00000-0  00000+0 0  9998
2 43603  54.8991 271.6476 0003388 348.1968 190.4442  1.86231447  3652
BEIDOU-3 M13            
1 43622U 18072A   19068.81672508  .00000019  00000-0  00000+0 0  9995
2 43622  55.0060 151.6025 0006340 277.1179 160.6864  1.86231541  3186
BEIDOU-3 M14            
1 43623U 18072B   19068.66515912  .00000019  00000-0  00000+0 0  9994
2 43623  55.0085 151.5958 0005030 302.8126 123.4913  1.86231561  3185
BEIDOU-3 M15            
1 43647U 18078A   19068.58200164 -.00000059  00000-0  10000-3 0  9997
2 43647  55.0718  31.6442 0008380 324.4522 301.2977  1.86232879  2695
BEIDOU-3 M16            
1 43648U 18078B   19067.58078418 -.00000064  00000-0  10000-3 0  9998
2 43648  55.0664  31.6865 0005960 329.7303 254.5863  1.86232760  2683
BEIDOU-3 G1             
1 43683U 18085A   19068.87104094 -.00000251  00000-0  00000+0 0  9991
2 43683   2.8051 271.5879 0001103  62.4654 291.3156  1.00274072  1420
BEIDOU-3 M17            
1 43706U 18093A   19068.38882600  .00000027  00000-0  00000+0 0  9998
2 43706  54.9182 272.9542 0007661 261.5353  39.5560  1.86231636  2047
BEIDOU-3 M18            
1 43707U 18093B   19068.32518317  .00000027  00000-0  00000+0 0  9994
2 43707  54.9185 272.9464 0006912 289.5853  58.9663  1.86231853  2047
